STARLINK-2022           
1 47643U 21012Z   24201.76774104  .00002698  00000+0  20001-3 0  9995
2 47643  53.0529 215.7930 0001293  91.8516 268.2621 15.06389485190143
